[{"OBJECT_NAME":"GEOSCAN 4 (RS92S4)","OBJECT_ID":"2025-155S","EPOCH":"2026-03-09T21:50:07.724832","MEAN_MOTION":15.30369837,"ECCENTRICITY":0.00070968,"INCLINATION":97.4465,"RA_OF_ASC_NODE":37.7626,"ARG_OF_PERICENTER":154.7045,"MEAN_ANOMALY":205.4544,"EPHEMERIS_TYPE":0,"CLASSIFICATION_TYPE":"U","NORAD_CAT_ID":64892,"ELEMENT_SET_NO":999,"REV_AT_EPOCH":6562,"BSTAR":0.00068609503,"MEAN_MOTION_DOT":0.00020121,"MEAN_MOTION_DDOT":0},{"OBJECT_NAME":"STARLINK-34867","OBJECT_ID":"2025-195B","EPOCH":"2026-03-09T18:07:16.043520","MEAN_MOTION":15.30209726,"ECCENTRICITY":0.00012203,"INCLINATION":53.156,"RA_OF_ASC_NODE":257.8795,"ARG_OF_PERICENTER":122.2141,"MEAN_ANOMALY":237.8979,"EPHEMERIS_TYPE":0,"CLASSIFICATION_TYPE":"U","NORAD_CAT_ID":65459,"ELEMENT_SET_NO":999,"REV_AT_EPOCH":3000,"BSTAR":0.00086453483,"MEAN_MOTION_DOT":0.00025341,"MEAN_MOTION_DDOT":0}]
